NORAD_CAT_ID,OBJECT_NAME,OBJECT_TYPE,EPOCH,MEAN_MOTION,ECCENTRICITY,INCLINATION,RA_OF_ASC_NODE,ARG_OF_PERICENTER,MEAN_ANOMALY,BSTAR,MEAN_MOTION_DOT,MEAN_MOTION_DDOT,TLE_LINE0,TLE_LINE1,TLE_LINE2,SEMIMAJOR_AXIS,PERIOD,APOGEE,PERIGEE,DECAYED
52876.0,STARLINK-4200,PAYLOAD,2023-10-08 10:45:03,15.08841069,0.0001853,53.2203,19.1481,106.8194,253.3001,0.0001249,1.7e-05,0.0,0 STARLINK-4200,1 52876U 22062AY  23281.44795334  .00001700  00000-0  12490-3 0  9992,2 52876  53.2203  19.1481 0001853 106.8194 253.3001 15.08841069 73214,6917.877,95.437,541.024,538.46,0.0
52876.0,STARLINK-4200,PAYLOAD,2023-10-08 13:55:49,15.08848037,0.0001595,53.2196,18.5566,105.7051,254.4117,0.00029307,4.38e-05,0.0,0 STARLINK-4200,1 52876U 22062AY  23281.58043141  .00004380  00000-0  29307-3 0  9991,2 52876  53.2196  18.5566 0001595 105.7051 254.4117 15.08848037 72744,6917.856,95.437,540.824,538.617,0.0
52876.0,STARLINK-4200,PAYLOAD,2023-10-09 05:49:40,15.08843822,0.000146,53.2184,15.5807,102.2788,257.8367,0.00012786,1.748e-05,0.0,0 STARLINK-4200,1 52876U 22062AY  23282.24283120  .00001748  00000-0  12786-3 0  9996,2 52876  53.2184  15.5807 0001460 102.2788 257.8367 15.08843822 73333,6917.869,95.437,540.744,538.724,0.0
52876.0,STARLINK-4200,PAYLOAD,2023-10-09 13:46:36,15.0885065,0.0001324,53.2183,14.0907,89.4958,270.6186,0.00022007,3.217e-05,0.0,0 STARLINK-4200,1 52876U 22062AY  23282.57402917  .00003217  00000-0  22007-3 0  9999,2 52876  53.2183  14.0907 0001324  89.4958 270.6186 15.08850650 72890,6917.848,95.437,540.629,538.797,0.0
52876.0,STARLINK-4200,PAYLOAD,2023-10-10 13:37:22,15.0885867,0.000151,53.2188,9.6323,93.2409,266.8756,0.00037966,5.763e-05,0.0,0 STARLINK-4200,1 52876U 22062AY  23283.56762495  .00005763  00000-0  37966-3 0  9997,2 52876  53.2188   9.6323 0001510  93.2409 266.8756 15.08858670 73530,6917.823,95.436,540.733,538.644,0.0
52876.0,STARLINK-4200,PAYLOAD,2023-10-10 18:23:31,15.08873666,0.0001358,53.2175,8.7396,87.7274,272.3873,0.00074441,0.0001159,0.0,0 STARLINK-4200,1 52876U 22062AY  23283.76633688  .00011590  00000-0  74441-3 0  9994,2 52876  53.2175   8.7396 0001358  87.7274 272.3873 15.08873666 73077,6917.777,95.435,540.582,538.703,0.0
52876.0,STARLINK-4200,PAYLOAD,2023-10-11 11:52:47,15.08837286,0.0001423,53.2188,5.4675,98.0572,262.0582,1.1232e-06,-2.7e-06,0.0,0 STARLINK-4200,1 52876U 22062AY  23284.49499261 -.00000270  00000-0  11232-5 0  9997,2 52876  53.2188   5.4675 0001423  98.0572 262.0582 15.08837286 73671,6917.889,95.438,540.738,538.769,0.0
52876.0,STARLINK-4200,PAYLOAD,2023-10-12 11:43:34,15.08863299,0.000133,53.2182,1.0072,106.014,254.0998,0.0013464,0.00021219,0.0,0 STARLINK-4200,1 52876U 22062AY  23285.48859161  .00021219  00000-0  13464-2 0  9997,2 52876  53.2182   1.0072 0001330 106.0140 254.0998 15.08863299 73334,6917.809,95.436,540.594,538.754,0.0
52876.0,STARLINK-4200,PAYLOAD,2023-10-13 11:34:21,15.08850505,0.0001237,53.2177,356.5464,99.7958,260.3173,0.00043,6.564e-05,0.0,0 STARLINK-4200,1 52876U 22062AY  23286.48219320  .00006564  00000-0  43000-3 0  9991,2 52876  53.2177 356.5464 0001237  99.7958 260.3173 15.08850505 73973,6917.848,95.437,540.569,538.858,0.0
52876.0,STARLINK-4200,PAYLOAD,2023-10-14 05:03:35,15.0884685,0.0001278,53.2184,353.2767,97.276,262.8377,0.0003839,5.828e-05,0.0,0 STARLINK-4200,1 52876U 22062AY  23287.21083304  .00005828  00000-0  38390-3 0  9992,2 52876  53.2184 353.2767 0001278  97.2760 262.8377 15.08846850 74084,6917.859,95.437,540.609,538.84,0.0
52876.0,STARLINK-4200,PAYLOAD,2023-10-14 11:25:08,15.08857544,0.0001449,53.219,352.0921,101.1706,258.9449,0.00056592,8.734e-05,0.0,0 STARLINK-4200,1 52876U 22062AY  23287.47578925  .00008734  00000-0  56592-3 0  9991,2 52876  53.2190 352.0921 0001449 101.1706 258.9449 15.08857544 73633,6917.827,95.436,540.694,538.689,0.0
52876.0,STARLINK-4200,PAYLOAD,2023-10-14 20:57:27,15.08840105,0.0001192,53.2176,350.3039,80.3547,279.7579,0.00032163,4.835e-05,0.0,0 STARLINK-4200,1 52876U 22062AY  23287.87323285  .00004835  00000-0  32163-3 0  9998,2 52876  53.2176 350.3039 0001192  80.3547 279.7579 15.08840105 74185,6917.88,95.438,540.57,538.92,0.0
52876.0,STARLINK-4200,PAYLOAD,2023-10-15 04:54:23,15.08820264,0.0001512,53.2187,348.818,100.9148,259.2014,-0.00034483,-5.769e-05,0.0,0 STARLINK-4200,1 52876U 22062AY  23288.20444203 -.00005769  00000-0 -34483-3 0  9996,2 52876  53.2187 348.8180 0001512 100.9148 259.2014 15.08820264 74235,6917.941,95.439,540.852,538.76,0.0
52876.0,STARLINK-4200,PAYLOAD,2023-10-15 11:15:56,15.08825159,0.0001588,53.2191,347.6294,104.3798,255.737,-0.00015958,-2.826e-05,0.0,0 STARLINK-4200,1 52876U 22062AY  23288.46940398 -.00002826  00000-0 -15958-3 0  9997,2 52876  53.2191 347.6294 0001588 104.3798 255.7370 15.08825159 73788,6917.926,95.438,540.889,538.692,0.0
52876.0,STARLINK-4200,PAYLOAD,2023-10-15 20:48:15,15.08829945,0.0001671,53.2196,345.845,103.4148,256.7031,5.0518e-06,-2.08e-06,0.0,0 STARLINK-4200,1 52876U 22062AY  23288.86684608 -.00000208  00000-0  50518-5 0  9994,2 52876  53.2196 345.8450 0001671 103.4148 256.7031 15.08829945 74333,6917.911,95.438,540.932,538.62,0.0
52876.0,STARLINK-4200,PAYLOAD,2023-10-16 07:55:57,15.08843404,0.0001574,53.2183,343.7631,100.1611,259.9559,0.00045828,7.014e-05,0.0,0 STARLINK-4200,1 52876U 22062AY  23289.33052541  .00007014  00000-0  45828-3 0  9999,2 52876  53.2183 343.7631 0001574 100.1611 259.9559 15.08843404 74402,6917.87,95.437,540.824,538.646,0.0
52876.0,STARLINK-4200,PAYLOAD,2023-10-16 11:06:43,15.08854634,0.0001591,53.2178,343.1682,101.1953,258.9218,0.0011754,0.00018475,0.0,0 STARLINK-4200,1 52876U 22062AY  23289.46300658  .00018475  00000-0  11754-2 0  9991,2 52876  53.2178 343.1682 0001591 101.1953 258.9218 15.08854634 73930,6917.836,95.437,540.801,538.6,0.0
52876.0,STARLINK-4200,PAYLOAD,2023-10-17 10:57:30,15.0885549,0.0001483,53.2175,338.7071,95.4602,264.656,0.00058081,8.972e-05,0.0,0 STARLINK-4200,1 52876U 22062AY  23290.45660314  .00008972  00000-0  58081-3 0  9996,2 52876  53.2175 338.7071 0001483  95.4602 264.6560 15.08855490 74571,6917.833,95.437,540.724,538.672,0.0
52876.0,STARLINK-4200,PAYLOAD,2023-10-18 12:23:40,15.08849941,0.0001625,53.2174,333.9487,90.953,269.1648,0.00024398,3.598e-05,0.0,0 STARLINK-4200,1 52876U 22062AY  23291.51644130  .00003598  00000-0  24398-3 0  9995,2 52876  53.2174 333.9487 0001625  90.9530 269.1648 15.08849941 74735,6917.85,95.437,540.839,538.591,0.0
52876.0,STARLINK-4200,PAYLOAD,2023-10-19 02:42:08,15.08843671,0.0001676,53.217,331.2705,88.1606,271.9579,9.3127e-05,1.195e-05,0.0,0 STARLINK-4200,1 52876U 22062AY  23292.11260343  .00001195  00000-0  93127-4 0  9990,2 52876  53.2170 331.2705 0001676  88.1606 271.9579 15.08843671 74822,6917.869,95.437,540.894,538.575,0.0
52876.0,STARLINK-4200,PAYLOAD,2023-10-19 09:03:41,15.08848316,0.0001726,53.2167,330.0832,85.9767,274.1423,0.00019645,2.841e-05,0.0,0 STARLINK-4200,1 52876U 22062AY  23292.37756129  .00002841  00000-0  19645-3 0  9991,2 52876  53.2167 330.0832 0001726  85.9767 274.1423 15.08848316 74379,6917.855,95.437,540.914,538.526,0.0
52876.0,STARLINK-4200,PAYLOAD,2023-10-20 12:05:14,15.08844388,0.0001726,53.2171,325.027,106.1169,254.0013,3.2933e-05,2.36e-06,0.0,0 STARLINK-4200,1 52876U 22062AY  23293.50364103  .00000236  00000-0  32933-4 0  9996,2 52876  53.2171 325.0270 0001726 106.1169 254.0013 15.08844388 75037,6917.867,95.437,540.926,538.538,0.0
52876.0,STARLINK-4200,PAYLOAD,2023-10-21 02:23:43,15.08832712,0.0001612,53.2168,322.3486,102.9226,257.1946,3.1868e-05,2.19e-06,0.0,0 STARLINK-4200,1 52876U 22062AY  23294.09980887  .00000219  00000-0  31868-4 0  9991,2 52876  53.2168 322.3486 0001612 102.9226 257.1946 15.08832712 75121,6917.903,95.438,540.883,538.652,0.0
52876.0,STARLINK-4200,PAYLOAD,2023-10-21 08:45:15,15.08838942,0.0001462,53.2171,321.1583,102.7914,257.3241,0.00012138,1.644e-05,0.0,0 STARLINK-4200,1 52876U 22062AY  23294.36476517  .00001644  00000-0  12138-3 0  9992,2 52876  53.2171 321.1583 0001462 102.7914 257.3241 15.08838942 74675,6917.884,95.438,540.76,538.737,0.0
52876.0,STARLINK-4200,PAYLOAD,2023-10-22 08:36:02,15.08842175,0.0001523,53.2178,316.7024,100.6754,259.441,0.00014675,2.048e-05,0.0,0 STARLINK-4200,1 52876U 22062AY  23295.35836489  .00002048  00000-0  14675-3 0  9997,2 52876  53.2178 316.7024 0001523 100.6754 259.4410 15.08842175 74820,6917.874,95.437,540.792,538.685,0.0
52876.0,STARLINK-4200,PAYLOAD,2023-10-22 18:08:21,15.08836669,0.0001575,53.2178,314.9182,91.6813,268.4359,-3.8868e-06,-3.5e-06,0.0,0 STARLINK-4200,1 52876U 22062AY  23295.75580991 -.00000350  00000-0 -38868-5 0  9993,2 52876  53.2178 314.9182 0001575  91.6813 268.4359 15.08836669 75371,6917.891,95.438,540.845,538.666,0.0
52876.0,STARLINK-4200,PAYLOAD,2023-10-23 05:16:04,15.08829176,0.0001572,53.2189,312.837,100.8294,259.2875,2.6912e-05,1.4e-06,0.0,0 STARLINK-4200,1 52876U 22062AY  23296.21950011  .00000140  00000-0  26912-4 0  9990,2 52876  53.2189 312.8370 0001572 100.8294 259.2875 15.08829176 75446,6917.913,95.438,540.866,538.691,0.0
52876.0,STARLINK-4200,PAYLOAD,2023-10-23 17:59:09,15.08835618,0.0001717,53.2197,310.4595,102.2377,257.8807,1.2745e-06,-2.68e-06,0.0,0 STARLINK-4200,1 52876U 22062AY  23296.74941823 -.00000268  00000-0  12745-5 0  9991,2 52876  53.2197 310.4595 0001717 102.2377 257.8807 15.08835618 75523,6917.894,95.438,540.947,538.571,0.0
52876.0,STARLINK-4200,PAYLOAD,2023-10-24 05:06:51,15.08843507,0.0001586,53.2189,308.3766,98.2992,261.818,0.00011525,1.547e-05,0.0,0 STARLINK-4200,1 52876U 22062AY  23297.21309142  .00001547  00000-0  11525-3 0  9999,2 52876  53.2189 308.3766 0001586  98.2992 261.8180 15.08843507 75593,6917.87,95.437,540.832,538.637,0.0
52876.0,STARLINK-4200,PAYLOAD,2023-10-24 09:53:00,15.08847954,0.0001414,53.2176,307.4831,89.783,270.3324,0.00013738,1.9e-05,0.0,0 STARLINK-4200,1 52876U 22062AY  23297.41180834  .00001900  00000-0  13738-3 0  9997,2 52876  53.2176 307.4831 0001414  89.7830 270.3324 15.08847954 75133,6917.856,95.437,540.699,538.743,0.0
